OBJECT_NAME,OBJECT_ID,EPOCH,MEAN_MOTION,ECCENTRICITY,INCLINATION,RA_OF_ASC_NODE,ARG_OF_PERICENTER,MEAN_ANOMALY,EPHEMERIS_TYPE,CLASSIFICATION_TYPE,NORAD_CAT_ID,ELEMENT_SET_NO,REV_AT_EPOCH,BSTAR,MEAN_MOTION_DOT,MEAN_MOTION_DDOT
SL-14 R/B,1990-018B,2026-06-17T08:22:28.168032,14.82216171,.0017447,82.5210,129.9563,121.2350,239.0577,0,U,20511,999,93734,.3544E-4,.307E-5,0
HST,1990-037B,2026-06-17T03:26:13.909056,15.30747004,.0001816,28.4720,80.8753,141.8279,218.2446,0,U,20580,999,78856,.17616E-3,.562E-4,0
SL-16 R/B,1990-046B,2026-06-17T02:08:57.297984,14.15026589,.0013351,70.9999,89.1530,161.9416,198.2184,0,U,20625,999,86245,.84629E-4,.116E-5,0
COSMOS 2084,1990-055A,2026-06-16T20:41:42.796896,15.06114812,.000558,62.7899,357.1999,278.3631,81.6837,0,U,20663,999,95125,.13175E-3,.1734E-4,0
SL-6 R/B(2),1990-055D,2026-06-17T12:21:12.513888,15.04003852,.0040712,62.7823,274.2619,5.1883,354.9630,0,U,20666,999,95320,.99721E-4,.12E-4,0
SL-8 R/B,1990-078B,2026-06-17T11:07:04.545120,14.92330883,.0350861,82.9016,161.3960,37.5373,324.9789,0,U,20775,999,82416,.5773E-3,.20481E-3,0
SL-8 R/B,1991-006B,2026-06-17T08:46:58.155168,13.77505871,.0023703,82.9425,95.9007,114.0768,7.0285,0,U,21088,999,77779,.41152E-4,.57E-6,0
SL-14 R/B,1991-042B,2026-06-17T08:31:54.933888,14.81902557,.0015412,82.4927,126.7376,274.2345,85.7108,0,U,21423,999,86783,.34583E-4,.297E-5,0
INTERCOSMOS 25,1991-086A,2026-06-16T22:43:17.116032,12.12195316,.1484021,82.6051,249.9553,262.9134,80.1493,0,U,21819,999,50871,.13921E-3,.698E-5,0
SL-8 R/B,1992-008B,2026-06-17T11:58:31.831392,13.75977040,.0033861,82.9262,193.5557,213.7960,254.6254,0,U,21876,999,72314,.11887E-3,.131E-5,0
SL-8 R/B,1992-020B,2026-06-17T03:17:13.500384,13.75548825,.0029732,82.9305,79.8947,22.7202,88.6847,0,U,21938,999,71480,.64058E-4,.77E-6,0
USA 81,1992-023A,2026-06-17T03:14:35.894688,14.32398154,.0002756,85.0075,74.0375,84.6017,275.5490,0,U,21949,999,10902,.4762E-4,.149E-5,0
COSMOS 2219,1992-076A,2026-06-17T09:40:04.908576,14.14099164,.001661,71.0579,169.6209,43.8060,316.4377,0,U,22219,999,73247,.17054E-3,.278E-5,0
SL-16 R/B,1992-093B,2026-06-17T09:12:38.604096,14.15461119,.0003943,71.0197,154.9786,188.1315,171.9745,0,U,22285,999,72726,-.12464E-3,-.291E-5,0
SL-16 R/B,1993-016B,2026-06-17T00:15:07.280352,14.15314120,.0010206,71.0085,6.5786,183.7871,176.3176,0,U,22566,999,71622,.16149E-3,.267E-5,0
COSMOS 2242,1993-024A,2026-06-17T12:21:36.586656,14.96904128,.0015339,82.5179,171.2292,335.1626,24.8856,0,U,22626,999,79532,.11164E-3,.131E-4,0
SL-16 R/B,1993-059B,2026-06-17T10:03:50.296032,14.17248281,.001521,70.9886,160.8140,53.4989,306.7533,0,U,22803,999,69366,-.19989E-4,-.88E-6,0
ARIANE 40 R/B,1993-061H,2026-06-17T03:15:13.123584,14.32907923,.0010447,98.4819,234.9936,356.3292,3.7814,0,U,22830,999,70834,.70281E-4,.149E-5,0
SL-16 R/B,1994-077B,2026-06-17T07:59:07.408032,14.15572187,.0002929,70.9809,142.8561,327.7854,32.3089,0,U,23405,999,63033,.78919E-4,.107E-5,0
